NORAD_CAT_ID,OBJECT_NAME,OBJECT_TYPE,EPOCH,MEAN_MOTION,ECCENTRICITY,INCLINATION,RA_OF_ASC_NODE,ARG_OF_PERICENTER,MEAN_ANOMALY,BSTAR,MEAN_MOTION_DOT,MEAN_MOTION_DDOT,TLE_LINE0,TLE_LINE1,TLE_LINE2,SEMIMAJOR_AXIS,PERIOD,APOGEE,PERIGEE,DECAYED
51890.0,STARLINK-3519,PAYLOAD,2022-08-15 16:00:00,15.08845932,0.0001914,53.2178,84.1312,71.5922,248.3876,-0.0019187,-0.000307,0.0,0 STARLINK-3519,1 51890U 22022AQ  22227.66667824 -.00030700  00000-0 -19187-2 0  9991,2 51890  53.2178  84.1312 0001914  71.5922 248.3876 15.08845932 26675,6917.861999999999,95.437,541.0509999999998,538.403,0.0
51890.0,STARLINK-3519,PAYLOAD,2022-08-15 22:00:00,15.0881673,0.000199,53.2178,83.0104,65.181,173.4957,0.0005053,7.758e-05,0.0,0 STARLINK-3519,1 51890U 22022AQ  22227.91667824  .00007758  00000-0  50530-3 0  9992,2 51890  53.2178  83.0104 0001990  65.1810 173.4957 15.08816730  1306,6917.9519999999975,95.439,541.193,538.44,0.0
51890.0,STARLINK-3519,PAYLOAD,2022-08-16 14:00:01,15.08831238,0.0001903,53.2183,80.0158,72.4902,189.342,0.0016983,0.00026837,0.0,0 STARLINK-3519,1 51890U 22022AQ  22228.58334491  .00026837  00000-0  16983-2 0  9999,2 51890  53.2183  80.0158 0001903  72.4902 189.3420 15.08831238 26819,6917.906999999997,95.438,541.089,538.456,0.0
51890.0,STARLINK-3519,PAYLOAD,2022-08-16 22:00:00,15.0883485,0.0002014,53.2185,78.5212,65.6503,207.7794,0.0008696,0.00013577,0.0,0 STARLINK-3519,1 51890U 22022AQ  22228.91667824  .00013577  00000-0  86960-3 0  9995,2 51890  53.2185  78.5212 0002014  65.6503 207.7794 15.08834850  1308,6917.896,95.438,541.154,538.368,0.0
51890.0,STARLINK-3519,PAYLOAD,2022-08-17 06:00:02,15.08874968,0.0001863,53.2186,77.0239,66.9427,218.1385,-0.0048695,-0.00077033,0.0,0 STARLINK-3519,1 51890U 22022AQ  22229.25002315 -.00077033  00000-0 -48695-2 0  9992,2 51890  53.2186  77.0239 0001863  66.9427 218.1385 15.08874968 26912,6917.774,95.435,540.927,538.35,0.0
51890.0,STARLINK-3519,PAYLOAD,2022-08-17 16:00:00,15.08843487,0.0001807,53.219,75.1533,71.0709,318.4409,-0.00093039,-0.00015066,0.0,0 STARLINK-3519,1 51890U 22022AQ  22229.66667824 -.00015066  00000-0 -93039-3 0  9990,2 51890  53.2190  75.1533 0001807  71.0709 318.4409 15.08843487 26981,6917.87,95.437,540.985,538.485,0.0
51890.0,STARLINK-3519,PAYLOAD,2022-08-18 08:00:01,15.08841024,0.0001743,53.219,72.1605,70.5898,342.1166,0.0011455,0.0001799,0.0,0 STARLINK-3519,1 51890U 22022AQ  22230.33334491  .00017990  00000-0  11455-2 0  9994,2 51890  53.2190  72.1605 0001743  70.5898 342.1166 15.08841024 27081,6917.877,95.437,540.948,538.536,0.0
51890.0,STARLINK-3519,PAYLOAD,2022-08-18 14:00:01,15.08854409,0.0001758,53.2192,71.0381,74.0437,257.3578,0.0010958,0.00017202,0.0,0 STARLINK-3519,1 51890U 22022AQ  22230.58334491  .00017202  00000-0  10958-2 0  9994,2 51890  53.2192  71.0381 0001758  74.0437 257.3578 15.08854409  1308,6917.8359999999975,95.437,540.918,538.485,0.0
51890.0,STARLINK-3519,PAYLOAD,2022-08-18 22:00:00,15.08861085,0.0001795,53.2191,69.5436,65.9032,277.1194,-0.0016742,-0.0002685,0.0,0 STARLINK-3519,1 51890U 22022AQ  22230.91667824 -.00026850  00000-0 -16742-2 0  9998,2 51890  53.2191  69.5436 0001795  65.9032 277.1194 15.08861085  1303,6917.816,95.436,540.923,538.439,0.0
51890.0,STARLINK-3519,PAYLOAD,2022-08-19 06:00:00,15.088626500000002,0.0001582,53.2188,68.0462,67.747,286.8826,-0.0045173,-0.00071512,0.0,0 STARLINK-3519,1 51890U 22022AQ  22231.25001157 -.00071512  00000-0 -45173-2 0  9992,2 51890  53.2188  68.0462 0001582  67.7470 286.8826 15.08862650 27218,6917.811,95.436,540.771,538.582,0.0
51890.0,STARLINK-3519,PAYLOAD,2022-08-19 14:00:01,15.0882671,0.0001517,53.219,66.5495,73.236,292.9836,0.00062026,9.594e-05,0.0,0 STARLINK-3519,1 51890U 22022AQ  22231.58334491  .00009594  00000-0  62026-3 0  9994,2 51890  53.2190  66.5495 0001517  73.2360 292.9836 15.08826710  1306,6917.920999999999,95.438,540.835,538.737,0.0
51890.0,STARLINK-3519,PAYLOAD,2022-08-19 16:00:00,15.08840822,0.0001538,53.2189,66.176,70.8231,28.2881,-0.0013279,-0.0002136,0.0,0 STARLINK-3519,1 51890U 22022AQ  22231.66667824 -.00021360  00000-0 -13279-2 0  9994,2 51890  53.2189  66.1760 0001538  70.8231  28.2881 15.08840822 27283,6917.878000000002,95.438,540.807,538.679,0.0
51890.0,STARLINK-3519,PAYLOAD,2022-08-19 22:00:00,15.08811094,0.0001631,53.2188,65.055,65.0593,312.7412,0.0017793,0.00028121,0.0,0 STARLINK-3519,1 51890U 22022AQ  22231.91667824  .00028121  00000-0  17793-2 0  9997,2 51890  53.2188  65.0550 0001631  65.0593 312.7412 15.08811094  1303,6917.969,95.439,540.962,538.705,0.0
51890.0,STARLINK-3519,PAYLOAD,2022-08-20 14:00:01,15.08844445,0.0001546,53.2186,62.06100000000001,73.8715,327.0787,-7.0235000000000014e-06,-4e-06,0.0,0 STARLINK-3519,1 51890U 22022AQ  22232.58334491 -.00000400  00000-0 -70235-5 0  9997,2 51890  53.2186  62.0610 0001546  73.8715 327.0787 15.08844445  1303,6917.8669999999975,95.437,540.8009999999998,538.6619999999998,0.0
51890.0,STARLINK-3519,PAYLOAD,2022-08-20 22:00:00,15.08822445,0.0001633,53.2185,60.5664,65.5417,347.0103,0.0021463,0.00034019,0.0,0 STARLINK-3519,1 51890U 22022AQ  22232.91667824  .00034019  00000-0  21463-2 0  9990,2 51890  53.2185  60.5664 0001633  65.5417 347.0103 15.08822445  1308,6917.934,95.439,540.929,538.669,0.0
51890.0,STARLINK-3519,PAYLOAD,2022-08-21 14:00:01,15.08837666,0.000148,53.2183,57.5722,72.3536,3.3807,-0.0010924,-0.0001763,0.0,0 STARLINK-3519,1 51890U 22022AQ  22233.58334491 -.00017630  00000-0 -10924-2 0  9997,2 51890  53.2183  57.5722 0001480  72.3536   3.3807 15.08837666  1309,6917.888000000001,95.438,540.776,538.729,0.0
51890.0,STARLINK-3519,PAYLOAD,2022-08-21 22:00:00,15.08803725,0.0001551999999999,53.2184,56.0775,63.1554,24.1668,0.0025554,0.00040575,0.0,0 STARLINK-3519,1 51890U 22022AQ  22233.91667824  .00040575  00000-0  25554-2 0  9990,2 51890  53.2184  56.0775 0001552  63.1554  24.1668 15.08803725 27628,6917.991,95.44,540.93,538.783,0.0
51890.0,STARLINK-3519,PAYLOAD,2022-08-22 12:00:00,15.08827214,0.00015,53.2184,53.4569,72.0986,305.4799,0.0015258,0.0002407,0.0,0 STARLINK-3519,1 51890U 22022AQ  22234.50001157  .00024070  00000-0  15258-2 0  9999,2 51890  53.2184  53.4569 0001500  72.0986 305.4799 15.08827214  1307,6917.919,95.438,540.822,538.747,0.0
51890.0,STARLINK-3519,PAYLOAD,2022-08-22 22:00:00,15.08815095,0.0001599,53.2185,51.5885,61.9415,60.1316,0.0029664,0.00047206,0.0,0 STARLINK-3519,1 51890U 22022AQ  22234.91667824  .00047206  00000-0  29664-2 0  9995,2 51890  53.2185  51.5885 0001599  61.9415  60.1316 15.08815095  1304,6917.956999999999,95.439,540.928,538.715,0.0
51890.0,STARLINK-3519,PAYLOAD,2022-08-23 06:00:00,15.08838118,0.0001492,53.2187,50.0905,67.6795,65.9817,0.0002825,4.211e-05,0.0,0 STARLINK-3519,1 51890U 22022AQ  22235.25001157  .00004211  00000-0  28250-3 0  9994,2 51890  53.2187  50.0905 0001492  67.6795  65.9817 15.08838118 27824,6917.886,95.438,540.783,538.719,0.0
51890.0,STARLINK-3519,PAYLOAD,2022-08-23 14:00:01,15.08860381,0.0001557,53.2188,48.5942,69.6721,75.5783,-0.0012323,-0.00019857,0.0,0 STARLINK-3519,1 51890U 22022AQ  22235.58334491 -.00019857  00000-0 -12323-2 0  9997,2 51890  53.2188  48.5942 0001557  69.6721  75.5783 15.08860381  1302,6917.818,95.436,540.76,538.606,0.0
51890.0,STARLINK-3519,PAYLOAD,2022-08-23 22:00:01,15.08832097,0.0001581,53.2189,47.0993,60.2771,96.6535,0.00031493,4.727e-05,0.0,0 STARLINK-3519,1 51890U 22022AQ  22235.91668981  .00004727  00000-0  31493-3 0  9996,2 51890  53.2189  47.0993 0001581  60.2771  96.6535 15.08832097  1304,6917.905,95.438,540.863,538.6759999999998,0.0
51890.0,STARLINK-3519,PAYLOAD,2022-08-24 14:00:01,15.08845026,0.0001469,53.2193,44.1053,68.0369,111.9932,-0.0013875,-0.00022305,0.0,0 STARLINK-3519,1 51890U 22022AQ  22236.58334491 -.00022305  00000-0 -13875-2 0  9993,2 51890  53.2193  44.1053 0001469  68.0369 111.9932 15.08845026  1306,6917.865,95.437,540.746,538.714,0.0
51890.0,STARLINK-3519,PAYLOAD,2022-08-24 16:00:00,15.08842031,0.0001499,53.2191,43.7317,64.9765,207.9528,-0.0014241,-0.00022882,0.0,0 STARLINK-3519,1 51890U 22022AQ  22236.66667824 -.00022882  00000-0 -14241-2 0  9999,2 51890  53.2191  43.7317 0001499  64.9765 207.9528 15.08842031 28039,6917.874,95.437,540.776,538.702,0.0
51890.0,STARLINK-3519,PAYLOAD,2022-08-24 22:00:00,15.08809904,0.0001541,53.2191,42.6102,59.3395,132.2875,0.0030325,0.00048265,0.0,0 STARLINK-3519,1 51890U 22022AQ  22236.91667824  .00048265  00000-0  30325-2 0  9999,2 51890  53.2191  42.6102 0001541  59.3395 132.2875 15.08809904  1302,6917.972,95.439,540.903,538.771,0.0
51890.0,STARLINK-3519,PAYLOAD,2022-08-25 06:00:02,15.088259900000002,0.0001393,53.2193,41.112,66.9322,136.3455,0.0012879,0.0002026,0.0,0 STARLINK-3519,1 51890U 22022AQ  22237.25002315  .00020260  00000-0  12879-2 0  9994,2 51890  53.2193  41.1120 0001393  66.9322 136.3455 15.08825990 28128,6917.9230000000025,95.438,540.752,538.825,0.0
51890.0,STARLINK-3519,PAYLOAD,2022-08-25 14:00:01,15.08854382,0.0001453999999999,53.2194,39.6156,68.6082,146.1867,-0.0016164999999999,-0.00025932,0.0,0 STARLINK-3519,1 51890U 22022AQ  22237.58334491 -.00025932  00000-0 -16165-2 0  9998,2 51890  53.2194  39.6156 0001454  68.6082 146.1867 15.08854382  1304,6917.8359999999975,95.437,540.707,538.696,0.0
51890.0,STARLINK-3519,PAYLOAD,2022-08-25 22:00:00,15.08824195,0.0001509,53.2192,38.121,60.0695,166.3351,0.0027803,0.00044219,0.0,0 STARLINK-3519,1 51890U 22022AQ  22237.91667824  .00044219  00000-0  27803-2 0  9992,2 51890  53.2192  38.1210 0001509  60.0695 166.3351 15.08824195  1305,6917.929,95.439,540.8380000000002,538.75,0.0
51890.0,STARLINK-3519,PAYLOAD,2022-08-26 06:00:00,15.08830836,0.0001363,53.2193,36.6229,68.5613,169.4438,0.0017241,0.00027251,0.0,0 STARLINK-3519,1 51890U 22022AQ  22238.25001157  .00027251  00000-0  17241-2 0  9993,2 51890  53.2193  36.6229 0001363  68.5613 169.4438 15.08830836 28274,6917.908,95.438,540.716,538.83,0.0
